satname,norad_id,inclination_deg,eccentricity,mean_motion_rev_per_day,perigee_km,apogee_km,l1,l2
STARLINK-1206,45204,53.0388,0.0003978,15.92796877,291.8058730781022,297.1145914360868,1 45204U 20012AC  25249.91668981  .00363168  61761-4  10338-2 0  9999,2 45204  53.0388  85.5376 0003978 101.3441  66.9969 15.92796877  6001
STARLINK-1208,45205,53.0393,0.0006386,15.88123742,303.2739837533909,311.81293483600257,1 45205U 20012AD  25249.91668981  .00332999  00000+0  11496-2 0  9998,2 45205  53.0393  86.3452 0006386  97.9277 297.5729 15.88123742  5897
STARLINK-1209,45206,53.0535,0.000149,15.06404854,546.1648064488363,548.2285558858239,1 45206U 20012AE  25249.89638610  .00010513  00000+0  72349-3 0  9992,2 45206  53.0535 111.7029 0001490  91.5982 268.5177 15.06404854306742
STARLINK-1210,45207,53.0291,0.0009156,15.43581188,429.31155137007863,441.78877530358113,1 45207U 20012AF  25249.82046820  .00149225  00000+0  32111-2 0  9997,2 45207  53.0291  88.8707 0009156 181.7971 178.3003 15.43581188308011
STARLINK-1231,45212,53.0534,0.000362,15.08237748,539.0799056119995,544.0897842277209,1 45212U 20012AL  25249.97013769  .00035663  00000+0  22843-2 0  9996,2 45212  53.0534 131.1183 0003620 114.8610 245.2756 15.08237748307383
STARLINK-1271,45217,53.0538,0.0001464,15.0640337,546.1873598761185,548.2150989096854,1 45217U 20012AR  25249.93876619  .00004939  00000+0  35021-3 0  9993,2 45217  53.0538 131.5086 0001464  94.4573 265.6584 15.06403370307427
STARLINK-1191,45222,53.0537,0.0001375,15.06402383,546.2520199736409,548.1564888185994,1 45222U 20012AW  25249.88163885  .00004670  00000+0  33220-3 0  9998,2 45222  53.0537 111.7654 0001375  83.0264 277.0881 15.06402383307694
STARLINK-1212,45223,53.0537,0.0001467,15.06399691,546.1965562065552,548.228453751316,1 45223U 20012AX  25249.90015167  .00002985  00000+0  21918-3 0  9999,2 45223  53.0537 112.3383 0001467  88.7106 271.4051 15.06399691307694
STARLINK-1215,45225,53.0531,9.95e-05,15.06397812,546.5291910025117,547.9073367000174,1 45225U 20012AZ  25249.92216449 -.00000879  00000+0 -40113-4 0  9990,2 45225  53.0531 111.5836 0000995  84.1862 275.9241 15.06397812307657
STARLINK-1217,45226,53.0459,0.0006476,15.80202118,325.52447173522523,334.21268055744986,1 45226U 20012BA  25249.91668981  .00315627  00000+0  15916-2 0  9991,2 45226  53.0459  70.5650 0006476 121.1714  45.4523 15.80202118  6029
STARLINK-1221,45227,53.0694,0.0005144,15.34672418,458.3751644958147,465.41218805556673,1 45227U 20012BB  25249.78054135  .00018040  00000+0  53895-3 0  9995,2 45227  53.0694  56.2274 0005144 137.3519 222.7882 15.34672418308405
STARLINK-1222,45228,53.0541,0.0001897,15.06418823,545.8401410771894,548.4675964327944,1 45228U 20012BC  25249.88900661  .00004310  00000+0  30789-3 0  9993,2 45228  53.0541 111.7280 0001897 104.7807 255.3392 15.06418823307583
STARLINK-1226,45229,53.0536,0.0001596,15.06396908,546.1157473468538,548.3263216314626,1 45229U 20012BD  25249.91849664  .00006021  00000+0  42281-3 0  9994,2 45229  53.0536 111.5996 0001596  94.2885 265.8287 15.06396908307594
STARLINK-1227,45230,53.0537,0.0001287,15.06400283,546.3193983363944,548.1019828319513,1 45230U 20012BE  25249.91482052  .00014924  00000+0  10186-2 0  9999,2 45230  53.0537 111.6140 0001287  80.8763 279.2372 15.06400283307712
STARLINK-1238,45233,53.0386,0.0005822,15.87357775,305.80037945338427,313.5876899101668,1 45233U 20012BH  25249.91668981  .00366025  00000+0  13075-2 0  9991,2 45233  53.0386  87.5138 0005822  98.1087 229.4612 15.87357775  5990
STARLINK-1246,45235,53.0544,0.0001409,15.06398557,546.240198294021,548.191762763935,1 45235U 20012BK  25249.46512531  .00002970  00000+0  21817-3 0  9992,2 45235  53.0544 153.6350 0001409  88.7337 271.3813 15.06398557307098
STARLINK-1247,45236,53.0413,0.0004292,15.86955338,307.9537320792633,313.6955367462433,1 45236U 20012BL  25249.91668981  .00391319  00000+0  14220-2 0  9991,2 45236  53.0413  67.3877 0004292 113.5686 251.1243 15.86955338  5942
STARLINK-1270,45237,53.0538,0.0001213,15.06382581,546.4248939229774,548.1049964348776,1 45237U 20012BM  25249.93323557  .00005339  00000+0  37723-3 0  9999,2 45237  53.0538 111.5341 0001213  91.7161 268.3967 15.06382581307702
STARLINK-1279,45360,53.0545,0.0001406,15.06398163,546.2434832855779,548.1908928832672,1 45360U 20019A   25249.69271790 -.00001245  00000+0 -64677-4 0  9990,2 45360  53.0545 242.6120 0001406  90.5294 269.5857 15.06398163302402
STARLINK-1301,45361,53.0541,0.000119,15.06400136,546.3870246891038,548.0352575466895,1 45361U 20019B   25249.87978598  .00001581  00000+0  12502-3 0  9991,2 45361  53.0541 251.7739 0001190  80.1358 279.9766 15.06400136302309
STARLINK-1306,45362,53.0519,0.0007299,15.521761,405.4188668360075,415.32873490311704,1 45362U 20019C   25249.75851306  .00141030  00000+0  22545-2 0  9997,2 45362  53.0519 260.6545 0007299  13.4239 346.6962 15.52176100302168
STARLINK-1262,45366,53.0541,0.0001191,15.06393502,546.4066620587955,548.0562848291711,1 45366U 20019G   25249.77842361 -.00000375  00000+0 -63211-5 0  9990,2 45366  53.0541 272.2284 0001191  90.5588 269.5538 15.06393502302016
STARLINK-1273,45367,53.0531,0.000125,15.06395884,546.3585027675745,548.0898430608022,1 45367U 20019H   25249.80054042  .00001617  00000+0  12744-3 0  9997,2 45367  53.0531 272.1336 0001250  93.1058 267.0074 15.06395884302013
STARLINK-1276,45368,53.0545,0.000125,15.06395119,546.3608471009848,548.0921879803691,1 45368U 20019J   25249.77104719  .00000438  00000+0  48318-4 0  9998,2 45368  53.0545 272.2631 0001250  85.7935 274.3197 15.06395119302017
STARLINK-1277,45369,53.053,0.0001333,15.06395585,546.3019385439447,548.1482400769546,1 45369U 20019K   25249.76377074  .00005027  00000+0  35614-3 0  9997,2 45369  53.0530 272.9264 0001333  73.0104 287.1031 15.06395585302006
STARLINK-1281,45370,53.054,0.000138,15.06393212,546.2766612867572,548.1880632307393,1 45370U 20019L   25249.75999313 -.00000050  00000+0  15545-4 0  9998,2 45370  53.0540 272.3125 0001380  93.5063 266.6084 15.06393212302018
STARLINK-1300,45374,53.0545,0.0001298,15.06395499,546.3264408559589,548.1242649227688,1 45374U 20019Q   25249.78210902  .00000315  00000+0  40040-4 0  9996,2 45374  53.0545 272.2113 0001298  91.8276 268.2862 15.06395499302019
STARLINK-1302,45375,53.0545,0.0001121,15.06395352,546.4494702552074,548.0021365957346,1 45375U 20019R   25249.79685651 -.00000509  00000+0 -15273-4 0  9992,2 45375  53.0545 272.1485 0001121  86.4877 273.6240 15.06395352302011
STARLINK-1304,45376,53.0539,0.0001133,15.06396261,546.4383741684878,548.0076607484434,1 45376U 20019S   25249.48356422  .00002758  00000+0  20401-3 0  9994,2 45376  53.0539 273.5568 0001133  78.9891 281.1226 15.06396261301968
STARLINK-1305,45377,53.0528,0.0001472,15.06389841,546.2232780941404,548.2621098760492,1 45377U 20019T   25249.77473251  .00006714  00000+0  46930-3 0  9998,2 45377  53.0528 272.2453 0001472  81.3089 278.8067 15.06389841302018
STARLINK-1319,45379,53.0548,0.0001501,15.06386526,546.2133530983747,548.2923551325803,1 45379U 20019V   25249.76735793 -.00002303  00000+0 -13578-3 0  9995,2 45379  53.0548 272.2822 0001501  88.5960 271.5201 15.06386526302019
STARLINK-1258,45381,53.045,0.0008568,15.91291284,292.9477136260821,304.38908736036774,1 45381U 20019X   25249.91668981  .00331578  52327-4  10188-2 0  9993,2 45381  53.0450 205.5874 0008568  85.0938 123.7201 15.91291284  6049
STARLINK-1266,45383,53.054,0.0001365,15.06395883,546.2788641785373,548.1694877795799,1 45383U 20019Z   25249.70285552 -.00001137  00000+0 -57475-4 0  9996,2 45383  53.0540 252.5700 0001365  88.8483 271.2663 15.06395883302276
STARLINK-1267,45384,53.0547,0.0001426,15.06409315,546.1954583187198,548.1705595852727,1 45384U 20019AA  25249.42280283  .00000905  00000+0  79611-4 0  9998,2 45384  53.0547 254.4834 0001426  90.5830 269.5323 15.06409315302221
STARLINK-1272,45386,53.0542,0.0001265,15.06401491,546.3309322272771,548.083044256302,1 45386U 20019AC  25249.49643925  .00000864  00000+0  76896-4 0  9999,2 45386  53.0542 253.4969 0001265  86.4832 273.6301 15.06401491302244
STARLINK-1274,45387,53.0422,0.0007168,15.23406536,490.6473934940186,500.5015462572319,1 45387U 20019AD  25249.70948682  .00062956  00000+0  26015-2 0  9998,2 45387  53.0422 245.4645 0007168  11.0256 349.0897 15.23406536302372
STARLINK-1280,45388,53.0531,0.0001392,15.06408434,546.2217041424956,548.1497139846997,1 45388U 20019AE  25249.48722836  .00003101  00000+0  22692-3 0  9990,2 45388  53.0531 273.5400 0001392  89.7487 270.3662 15.06408434301955
STARLINK-1283,45389,53.0547,0.0001171,15.06397554,546.4080953921402,548.0300137801241,1 45389U 20019AF  25249.73234846 -.00000432  00000+0 -10138-4 0  9997,2 45389  53.0547 252.4361 0001171  86.4841 273.6282 15.06397554302289
STARLINK-1284,45390,53.0548,0.0001216,15.06398137,546.3751446918795,548.0593908498013,1 45390U 20019AG  25249.70654138 -.00000178  00000+0  69558-5 0  9993,2 45390  53.0548 252.5522 0001216  84.5271 275.5857 15.06398137302274
STARLINK-1292,45394,53.051,0.0003408,15.67880619,362.6687782397139,367.264877808896,1 45394U 20019AL  25249.91668981  .00251235  00000+0  21731-2 0  9990,2 45394  53.0510 230.3484 0003408  82.2024 298.8674 15.67880619  5839
STARLINK-1297,45395,53.0541,0.000111,15.06399724,546.4436900548299,547.9811176224812,1 45395U 20019AM  25249.74340237  .00001031  00000+0  88121-4 0  9998,2 45395  53.0541 252.3869 0001110  84.3116 275.7999 15.06399724301465
STARLINK-1307,45397,53.0547,0.0001262,15.06393594,546.357210009457,548.1051729409846,1 45397U 20019AP  25249.73603841  .00000101  00000+0  25649-4 0  9995,2 45397  53.0547 252.4179 0001262  82.5171 277.5961 15.06393594302107
STARLINK-1312,45398,53.0507,0.0011861,15.65306984,364.3492624449909,380.36278199229764,1 45398U 20019AQ  25249.91668981  .00230064  00000+0  22072-2 0  9990,2 45398  53.0507 229.5294 0011861  21.3715 340.1658 15.65306984  5986
